{"type":"FeatureCollection","features":[{"type":"Feature","id":1738,"geometry":{"type":"Point","coordinates":[-72.72,-13.68]},"properties":{"code":"2026-83","departamento":"APUR\u00cdMAC","fecha":1771131600000,"fechaevento":1771155153000,"hora":"06:32:33","int_":"II-III Abancay","lat":-13.68,"lon":-72.72,"mag":"3.4","magnitud":3.4,"negprof":-20,"objectid":1738,"prof":20,"profundidad":"Superficial","ref":"18 km al E de Abancay, Abancay - Apur\u00edmac","reporte":83,"sentido":"1","ultimo":"1","event_ts_utc":"2026-02-15T11:32:33Z","event_ts_local":"2026-02-15T06:32:33-05:00"}},{"type":"Feature","id":1737,"geometry":{"type":"Point","coordinates":[-69.76,-18.26]},"properties":{"code":"2026-82","departamento":"TACNA","fecha":1771131600000,"fechaevento":1771146890000,"hora":"04:14:50","int_":"","lat":-18.26,"lon":-69.76,"mag":"4.2","magnitud":4.2,"negprof":-127,"objectid":1737,"prof":127,"profundidad":"Intermedio","ref":"57 km al SE de Calana, Tacna - Tacna","reporte":82,"sentido":"0","ultimo":"0","event_ts_utc":"2026-02-15T09:14:50Z","event_ts_local":"2026-02-15T04:14:50-05:00"}},{"type":"Feature","id":1736,"geometry":{"type":"Point","coordinates":[-71.73,-16.33]},"properties":{"code":"2026-81","departamento":"AREQUIPA","fecha":1771131600000,"fechaevento":1771135395000,"hora":"01:03:15","int_":"III Yura","lat":-16.33,"lon":-71.73,"mag":"4.7","magnitud":4.7,"negprof":-123,"objectid":1736,"prof":123,"profundidad":"Intermedio","ref":"10 km al SO de Yura, Arequipa - Arequipa","reporte":81,"sentido":"1","ultimo":"0","event_ts_utc":"2026-02-15T06:03:15Z","event_ts_local":"2026-02-15T01:03:15-05:00"}},{"type":"Feature","id":1735,"geometry":{"type":"Point","coordinates":[-75.02,-16.04]},"properties":{"code":"2026-80","departamento":"OCEANO","fecha":1771045200000,"fechaevento":1771121645000,"hora":"21:14:05","int_":"II-III Lomas","lat":-16.04,"lon":-75.02,"mag":"3.8","magnitud":3.8,"negprof":-17,"objectid":1735,"prof":17,"profundidad":"Superficial","ref":"55 km al S de Lomas, Caravel\u00ed - Arequipa","reporte":80,"sentido":"1","ultimo":"0","event_ts_utc":"2026-02-15T02:14:05Z","event_ts_local":"2026-02-14T21:14:05-05:00"}},{"type":"Feature","id":1734,"geometry":{"type":"Point","coordinates":[-77.75,-11.61]},"properties":{"code":"2026-79","departamento":"OCEANO","fecha":1771045200000,"fechaevento":1771078529000,"hora":"09:15:29","int_":"III Huacho","lat":-11.61,"lon":-77.75,"mag":"4.2","magnitud":4.2,"negprof":-44,"objectid":1734,"prof":44,"profundidad":"Superficial","ref":"58 km al S de Huacho, Huaura - Lima","reporte":79,"sentido":"1","ultimo":"0","event_ts_utc":"2026-02-14T14:15:29Z","event_ts_local":"2026-02-14T09:15:29-05:00"}},{"type":"Feature","id":1733,"geometry":{"type":"Point","coordinates":[-77.7,-2.45]},"properties":{"code":"2026-78","departamento":"LORETO","fecha":1770872400000,"fechaevento":1770933174000,"hora":"16:52:54","int_":"","lat":-2.45,"lon":-77.7,"mag":"4.8","magnitud":4.8,"negprof":-149,"objectid":1733,"prof":149,"profundidad":"Intermedio","ref":"181 km al NO de Andoas, Datem del Mara\u00f1\u00f3n - Loreto","reporte":78,"sentido":"0","ultimo":"0","event_ts_utc":"2026-02-12T21:52:54Z","event_ts_local":"2026-02-12T16:52:54-05:00"}},{"type":"Feature","id":1732,"geometry":{"type":"Point","coordinates":[-80.21,-3.43]},"properties":{"code":"2026-77","departamento":"TUMBES","fecha":1770786000000,"fechaevento":1770806773000,"hora":"05:46:13","int_":"II-III Zarumilla","lat":-3.43,"lon":-80.21,"mag":"3.5","magnitud":3.5,"negprof":-32,"objectid":1732,"prof":32,"profundidad":"Superficial","ref":"10 km al NE de Zarumilla, Zarumilla - Tumbes","reporte":77,"sentido":"1","ultimo":"0","event_ts_utc":"2026-02-11T10:46:13Z","event_ts_local":"2026-02-11T05:46:13-05:00"}},{"type":"Feature","id":1731,"geometry":{"type":"Point","coordinates":[-77.29,-11.49]},"properties":{"code":"2026-76","departamento":"LIMA","fecha":1770786000000,"fechaevento":1770790635000,"hora":"01:17:15","int_":"II-III Huaral","lat":-11.49,"lon":-77.29,"mag":"3.5","magnitud":3.5,"negprof":-53,"objectid":1731,"prof":53,"profundidad":"Superficial","ref":"9 km al O de Huaral, Huaral - Lima","reporte":76,"sentido":"1","ultimo":"0","event_ts_utc":"2026-02-11T06:17:15Z","event_ts_local":"2026-02-11T01:17:15-05:00"}},{"type":"Feature","id":1730,"geometry":{"type":"Point","coordinates":[-73.63,-14.7]},"properties":{"code":"2026-75","departamento":"AYACUCHO","fecha":1770786000000,"fechaevento":1770786190000,"hora":"00:03:10","int_":"","lat":-14.7,"lon":-73.63,"mag":"4.2","magnitud":4.2,"negprof":-112,"objectid":1730,"prof":112,"profundidad":"Intermedio","ref":"39 km al NE de Coracora, Parinacochas - Ayacucho","reporte":75,"sentido":"0","ultimo":"0","event_ts_utc":"2026-02-11T05:03:10Z","event_ts_local":"2026-02-11T00:03:10-05:00"}},{"type":"Feature","id":1729,"geometry":{"type":"Point","coordinates":[-70.13,-12.88]},"properties":{"code":"2026-74","departamento":"PUNO","fecha":1770699600000,"fechaevento":1770771106000,"hora":"19:51:46","int_":"III San Gab\u00e1n","lat":-12.88,"lon":-70.13,"mag":"4.6","magnitud":4.6,"negprof":-35,"objectid":1729,"prof":35,"profundidad":"Superficial","ref":"69 km al NE de San Gab\u00e1n, Carabaya - Puno","reporte":74,"sentido":"1","ultimo":"0","event_ts_utc":"2026-02-11T00:51:46Z","event_ts_local":"2026-02-10T19:51:46-05:00"}},{"type":"Feature","id":1728,"geometry":{"type":"Point","coordinates":[-79.27,-9.23]},"properties":{"code":"2026-73","departamento":"OCEANO","fecha":1770699600000,"fechaevento":1770765106000,"hora":"18:11:46","int_":"III Chimbote","lat":-9.23,"lon":-79.27,"mag":"4.4","magnitud":4.4,"negprof":-33,"objectid":1728,"prof":33,"profundidad":"Superficial","ref":"78 km al O de Chimbote, Santa - \u00c1ncash","reporte":73,"sentido":"1","ultimo":"0","event_ts_utc":"2026-02-10T23:11:46Z","event_ts_local":"2026-02-10T18:11:46-05:00"}},{"type":"Feature","id":1727,"geometry":{"type":"Point","coordinates":[-72.77,-16.99]},"properties":{"code":"2026-72","departamento":"OCEANO","fecha":1770613200000,"fechaevento":1770678609000,"hora":"18:10:09","int_":"II-III Caman\u00e1","lat":-16.99,"lon":-72.77,"mag":"3.9","magnitud":3.9,"negprof":-41,"objectid":1727,"prof":41,"profundidad":"Superficial","ref":"41 km al S de Caman\u00e1, Caman\u00e1 - Arequipa","reporte":72,"sentido":"1","ultimo":"0","event_ts_utc":"2026-02-09T23:10:09Z","event_ts_local":"2026-02-09T18:10:09-05:00"}},{"type":"Feature","id":1726,"geometry":{"type":"Point","coordinates":[-72.73,-12.83]},"properties":{"code":"2026-71","departamento":"CUSCO","fecha":1770526800000,"fechaevento":1770609749000,"hora":"23:02:29","int_":"III Quillabamba","lat":-12.83,"lon":-72.73,"mag":"3.6","magnitud":3.6,"negprof":-10,"objectid":1726,"prof":10,"profundidad":"Superficial","ref":"5 km al NO de Quillabamba, La Convenci\u00f3n - Cusco","reporte":71,"sentido":"1","ultimo":"0","event_ts_utc":"2026-02-09T04:02:29Z","event_ts_local":"2026-02-08T23:02:29-05:00"}},{"type":"Feature","id":1725,"geometry":{"type":"Point","coordinates":[-74.36,-14.93]},"properties":{"code":"2026-70","departamento":"AYACUCHO","fecha":1770526800000,"fechaevento":1770556218000,"hora":"08:10:18","int_":"","lat":-14.93,"lon":-74.36,"mag":"4.0","magnitud":4.0,"negprof":-92,"objectid":1725,"prof":92,"profundidad":"Intermedio","ref":"37 km al SO de Puquio, Lucanas - Ayacucho","reporte":70,"sentido":"0","ultimo":"0","event_ts_utc":"2026-02-08T13:10:18Z","event_ts_local":"2026-02-08T08:10:18-05:00"}},{"type":"Feature","id":1724,"geometry":{"type":"Point","coordinates":[-71.66,-15.65]},"properties":{"code":"2026-69","departamento":"AREQUIPA","fecha":1770440400000,"fechaevento":1770485339000,"hora":"12:28:59","int_":"III Coporaque","lat":-15.65,"lon":-71.66,"mag":"3.5","magnitud":3.5,"negprof":-20,"objectid":1724,"prof":20,"profundidad":"Superficial","ref":"3 km al SO de Coporaque, Caylloma - Arequipa","reporte":69,"sentido":"1","ultimo":"0","event_ts_utc":"2026-02-07T17:28:59Z","event_ts_local":"2026-02-07T12:28:59-05:00"}},{"type":"Feature","id":1723,"geometry":{"type":"Point","coordinates":[-75.92,-3.2]},"properties":{"code":"2026-68","departamento":"LORETO","fecha":1770267600000,"fechaevento":1770338441000,"hora":"19:40:41","int_":"","lat":-3.2,"lon":-75.92,"mag":"4.1","magnitud":4.1,"negprof":-145,"objectid":1723,"prof":145,"profundidad":"Intermedio","ref":"65 km al NE de Andoas, Datem del Mara\u00f1\u00f3n - Loreto","reporte":68,"sentido":"0","ultimo":"0","event_ts_utc":"2026-02-06T00:40:41Z","event_ts_local":"2026-02-05T19:40:41-05:00"}},{"type":"Feature","id":1722,"geometry":{"type":"Point","coordinates":[-80.3,-5.62]},"properties":{"code":"2026-67","departamento":"PIURA","fecha":1770267600000,"fechaevento":1770327143000,"hora":"16:32:23","int_":"II-III La Uni\u00f3n","lat":-5.62,"lon":-80.3,"mag":"3.8","magnitud":3.8,"negprof":-47,"objectid":1722,"prof":47,"profundidad":"Superficial","ref":"55 km al SE de La Uni\u00f3n, Piura - Piura","reporte":67,"sentido":"1","ultimo":"0","event_ts_utc":"2026-02-05T21:32:23Z","event_ts_local":"2026-02-05T16:32:23-05:00"}},{"type":"Feature","id":1721,"geometry":{"type":"Point","coordinates":[-74.06,-15.2]},"properties":{"code":"2026-66","departamento":"AYACUCHO","fecha":1770267600000,"fechaevento":1770324994000,"hora":"15:56:34","int_":"","lat":-15.2,"lon":-74.06,"mag":"4.0","magnitud":4.0,"negprof":-106,"objectid":1721,"prof":106,"profundidad":"Intermedio","ref":"25 km al O de Pullo, Parinacochas - Ayacucho","reporte":66,"sentido":"0","ultimo":"0","event_ts_utc":"2026-02-05T20:56:34Z","event_ts_local":"2026-02-05T15:56:34-05:00"}},{"type":"Feature","id":1720,"geometry":{"type":"Point","coordinates":[-73.9,-10.73]},"properties":{"code":"2026-65","departamento":"UCAYALI","fecha":1770267600000,"fechaevento":1770315645000,"hora":"13:20:45","int_":"","lat":-10.73,"lon":-73.9,"mag":"4.0","magnitud":4.0,"negprof":-117,"objectid":1720,"prof":117,"profundidad":"Intermedio","ref":"16 km al O de Atalaya, Atalaya - Ucayali","reporte":65,"sentido":"0","ultimo":"0","event_ts_utc":"2026-02-05T18:20:45Z","event_ts_local":"2026-02-05T13:20:45-05:00"}},{"type":"Feature","id":1719,"geometry":{"type":"Point","coordinates":[-74.66,-11.19]},"properties":{"code":"2026-64","departamento":"JUN\u00cdN","fecha":1770267600000,"fechaevento":1770289658000,"hora":"06:07:38","int_":"","lat":-11.19,"lon":-74.66,"mag":"4.0","magnitud":4.0,"negprof":-130,"objectid":1719,"prof":130,"profundidad":"Intermedio","ref":"7 km al N de Satipo, Satipo - Jun\u00edn","reporte":64,"sentido":"0","ultimo":"0","event_ts_utc":"2026-02-05T11:07:38Z","event_ts_local":"2026-02-05T06:07:38-05:00"}},{"type":"Feature","id":1718,"geometry":{"type":"Point","coordinates":[-76.11,-13.67]},"properties":{"code":"2026-63","departamento":"ICA","fecha":1770267600000,"fechaevento":1770269403000,"hora":"00:30:03","int_":"II Pisco","lat":-13.67,"lon":-76.11,"mag":"3.8","magnitud":3.8,"negprof":-51,"objectid":1718,"prof":51,"profundidad":"Superficial","ref":"12 km al E de Pisco, Pisco - Ica","reporte":63,"sentido":"1","ultimo":"0","event_ts_utc":"2026-02-05T05:30:03Z","event_ts_local":"2026-02-05T00:30:03-05:00"}},{"type":"Feature","id":1717,"geometry":{"type":"Point","coordinates":[-75.67,-9.75]},"properties":{"code":"2026-62","departamento":"HU\u00c1NUCO","fecha":1770181200000,"fechaevento":1770250804000,"hora":"19:20:04","int_":"II-III Codo del Pozuzo","lat":-9.75,"lon":-75.67,"mag":"3.7","magnitud":3.7,"negprof":-16,"objectid":1717,"prof":16,"profundidad":"Superficial","ref":"25 km al O de Codo del Pozuzo, Puerto Inca - Hu\u00e1nuco","reporte":62,"sentido":"1","ultimo":"0","event_ts_utc":"2026-02-05T00:20:04Z","event_ts_local":"2026-02-04T19:20:04-05:00"}},{"type":"Feature","id":1716,"geometry":{"type":"Point","coordinates":[-74.97,-8.73]},"properties":{"code":"2026-61","departamento":"UCAYALI","fecha":1770094800000,"fechaevento":1770139793000,"hora":"12:29:53","int_":"","lat":-8.73,"lon":-74.97,"mag":"4.0","magnitud":4.0,"negprof":-130,"objectid":1716,"prof":130,"profundidad":"Intermedio","ref":"36 km al SE de Curiman\u00e1, Padre Abad - Ucayali","reporte":61,"sentido":"0","ultimo":"0","event_ts_utc":"2026-02-03T17:29:53Z","event_ts_local":"2026-02-03T12:29:53-05:00"}},{"type":"Feature","id":1715,"geometry":{"type":"Point","coordinates":[-70.71,-15.49]},"properties":{"code":"2026-60","departamento":"PUNO","fecha":1770008400000,"fechaevento":1770084496000,"hora":"21:08:16","int_":"","lat":-15.49,"lon":-70.71,"mag":"4.0","magnitud":4.0,"negprof":-196,"objectid":1715,"prof":196,"profundidad":"Intermedio","ref":"26 km al NO de Santa Luc\u00eda, Lampa - Puno","reporte":60,"sentido":"0","ultimo":"0","event_ts_utc":"2026-02-03T02:08:16Z","event_ts_local":"2026-02-02T21:08:16-05:00"}},{"type":"Feature","id":1714,"geometry":{"type":"Point","coordinates":[-78.78,-9.88]},"properties":{"code":"2026-59","departamento":"OCEANO","fecha":1770008400000,"fechaevento":1770082467000,"hora":"20:34:27","int_":"II-III Casma","lat":-9.88,"lon":-78.78,"mag":"3.7","magnitud":3.7,"negprof":-44,"objectid":1714,"prof":44,"profundidad":"Superficial","ref":"69 km al SO de Casma, Casma - \u00c1ncash","reporte":59,"sentido":"1","ultimo":"0","event_ts_utc":"2026-02-03T01:34:27Z","event_ts_local":"2026-02-02T20:34:27-05:00"}},{"type":"Feature","id":1713,"geometry":{"type":"Point","coordinates":[-72.0,-15.14]},"properties":{"code":"2026-58","departamento":"AREQUIPA","fecha":1770008400000,"fechaevento":1770037466000,"hora":"08:04:26","int_":"","lat":-15.14,"lon":-72.0,"mag":"4.0","magnitud":4.0,"negprof":-139,"objectid":1713,"prof":139,"profundidad":"Intermedio","ref":"49 km al NE de Chachas, Castilla - Arequipa","reporte":58,"sentido":"0","ultimo":"0","event_ts_utc":"2026-02-02T13:04:26Z","event_ts_local":"2026-02-02T08:04:26-05:00"}},{"type":"Feature","id":1712,"geometry":{"type":"Point","coordinates":[-78.18,-11.34]},"properties":{"code":"2026-57","departamento":"OCEANO","fecha":1769835600000,"fechaevento":1769894891000,"hora":"16:28:11","int_":"II-III Huacho","lat":-11.34,"lon":-78.18,"mag":"4.0","magnitud":4.0,"negprof":-49,"objectid":1712,"prof":49,"profundidad":"Superficial","ref":"68 km al O de Huacho, Huaura - Lima","reporte":57,"sentido":"1","ultimo":"0","event_ts_utc":"2026-01-31T21:28:11Z","event_ts_local":"2026-01-31T16:28:11-05:00"}},{"type":"Feature","id":1711,"geometry":{"type":"Point","coordinates":[-75.33,-15.78]},"properties":{"code":"2026-56","departamento":"OCEANO","fecha":1769749200000,"fechaevento":1769821753000,"hora":"20:09:13","int_":"III-IV Marcona","lat":-15.78,"lon":-75.33,"mag":"5.0","magnitud":5.0,"negprof":-20,"objectid":1711,"prof":20,"profundidad":"Superficial","ref":"50 km al S de Marcona, Nasca - Ica","reporte":56,"sentido":"1","ultimo":"0","event_ts_utc":"2026-01-31T01:09:13Z","event_ts_local":"2026-01-30T20:09:13-05:00"}},{"type":"Feature","id":1710,"geometry":{"type":"Point","coordinates":[-75.27,-15.79]},"properties":{"code":"2026-55","departamento":"OCEANO","fecha":1769749200000,"fechaevento":1769819695000,"hora":"19:34:55","int_":"","lat":-15.79,"lon":-75.27,"mag":"4.1","magnitud":4.1,"negprof":-18,"objectid":1710,"prof":18,"profundidad":"Superficial","ref":"49 km al S de Marcona, Nasca - Ica","reporte":55,"sentido":"0","ultimo":"0","event_ts_utc":"2026-01-31T00:34:55Z","event_ts_local":"2026-01-30T19:34:55-05:00"}},{"type":"Feature","id":1709,"geometry":{"type":"Point","coordinates":[-71.93,-16.9]},"properties":{"code":"2026-54","departamento":"AREQUIPA","fecha":1769662800000,"fechaevento":1769734400000,"hora":"19:53:20","int_":"III Mollendo","lat":-16.9,"lon":-71.93,"mag":"3.9","magnitud":3.9,"negprof":-50,"objectid":1709,"prof":50,"profundidad":"Superficial","ref":"17 km al NE de Mollendo, Islay - Arequipa","reporte":54,"sentido":"1","ultimo":"0","event_ts_utc":"2026-01-30T00:53:20Z","event_ts_local":"2026-01-29T19:53:20-05:00"}},{"type":"Feature","id":1708,"geometry":{"type":"Point","coordinates":[-75.43,-15.73]},"properties":{"code":"2026-53","departamento":"OCEANO","fecha":1769662800000,"fechaevento":1769673066000,"hora":"02:51:06","int_":"IV Marcona","lat":-15.73,"lon":-75.43,"mag":"4.9","magnitud":4.9,"negprof":-40,"objectid":1708,"prof":40,"profundidad":"Superficial","ref":"50 km al SO de Marcona, Nasca - Ica","reporte":53,"sentido":"1","ultimo":"0","event_ts_utc":"2026-01-29T07:51:06Z","event_ts_local":"2026-01-29T02:51:06-05:00"}},{"type":"Feature","id":1707,"geometry":{"type":"Point","coordinates":[-74.54,-10.98]},"properties":{"code":"2026-52","departamento":"JUN\u00cdN","fecha":1769576400000,"fechaevento":1769618079000,"hora":"11:34:39","int_":"III Satipo","lat":-10.98,"lon":-74.54,"mag":"3.8","magnitud":3.8,"negprof":-14,"objectid":1707,"prof":14,"profundidad":"Superficial","ref":"32 km al N de Satipo, Satipo - Jun\u00edn","reporte":52,"sentido":"1","ultimo":"0","event_ts_utc":"2026-01-28T16:34:39Z","event_ts_local":"2026-01-28T11:34:39-05:00"}},{"type":"Feature","id":1706,"geometry":{"type":"Point","coordinates":[-74.79,-8.72]},"properties":{"code":"2026-51","departamento":"HU\u00c1NUCO","fecha":1769317200000,"fechaevento":1769372942000,"hora":"15:29:02","int_":"III Pucallpa","lat":-8.72,"lon":-74.79,"mag":"4.8","magnitud":4.8,"negprof":-136,"objectid":1706,"prof":136,"profundidad":"Intermedio","ref":"47 km al SO de Pucallpa, Coronel Portillo - Ucayali","reporte":51,"sentido":"1","ultimo":"0","event_ts_utc":"2026-01-25T20:29:02Z","event_ts_local":"2026-01-25T15:29:02-05:00"}},{"type":"Feature","id":1705,"geometry":{"type":"Point","coordinates":[-76.74,-14.34]},"properties":{"code":"2026-50","departamento":"OCEANO","fecha":1769144400000,"fechaevento":1769217641000,"hora":"20:20:41","int_":"","lat":-14.34,"lon":-76.74,"mag":"4.2","magnitud":4.2,"negprof":-26,"objectid":1705,"prof":26,"profundidad":"Superficial","ref":"90 km al SO de Pisco, Pisco - Ica","reporte":50,"sentido":"0","ultimo":"0","event_ts_utc":"2026-01-24T01:20:41Z","event_ts_local":"2026-01-23T20:20:41-05:00"}},{"type":"Feature","id":1704,"geometry":{"type":"Point","coordinates":[-74.09,-16.38]},"properties":{"code":"2026-49","departamento":"OCEANO","fecha":1769144400000,"fechaevento":1769170836000,"hora":"07:20:36","int_":"","lat":-16.38,"lon":-74.09,"mag":"4.0","magnitud":4.0,"negprof":-32,"objectid":1704,"prof":32,"profundidad":"Superficial","ref":"53 km al O de Atico, Caravel\u00ed - Arequipa","reporte":49,"sentido":"0","ultimo":"0","event_ts_utc":"2026-01-23T12:20:36Z","event_ts_local":"2026-01-23T07:20:36-05:00"}},{"type":"Feature","id":1703,"geometry":{"type":"Point","coordinates":[-79.19,-9.09]},"properties":{"code":"2026-48","departamento":"OCEANO","fecha":1768971600000,"fechaevento":1769034483000,"hora":"17:28:03","int_":"II Chimbote","lat":-9.09,"lon":-79.19,"mag":"3.5","magnitud":3.5,"negprof":-58,"objectid":1703,"prof":58,"profundidad":"Superficial","ref":"67 km al O de Chimbote, Santa - \u00c1ncash","reporte":48,"sentido":"1","ultimo":"0","event_ts_utc":"2026-01-21T22:28:03Z","event_ts_local":"2026-01-21T17:28:03-05:00"}},{"type":"Feature","id":1702,"geometry":{"type":"Point","coordinates":[-73.96,-14.29]},"properties":{"code":"2026-47","departamento":"AYACUCHO","fecha":1768971600000,"fechaevento":1769023052000,"hora":"14:17:32","int_":"II Querobamba","lat":-14.29,"lon":-73.96,"mag":"3.9","magnitud":3.9,"negprof":-102,"objectid":1702,"prof":102,"profundidad":"Intermedio","ref":"33 km al SO de Querobamba, Sucre - Ayacucho","reporte":47,"sentido":"1","ultimo":"0","event_ts_utc":"2026-01-21T19:17:32Z","event_ts_local":"2026-01-21T14:17:32-05:00"}},{"type":"Feature","id":1701,"geometry":{"type":"Point","coordinates":[-80.76,-4.07]},"properties":{"code":"2026-46","departamento":"PIURA","fecha":1768971600000,"fechaevento":1768991709000,"hora":"05:35:09","int_":"II-III M\u00e1ncora","lat":-4.07,"lon":-80.76,"mag":"3.7","magnitud":3.7,"negprof":-27,"objectid":1701,"prof":27,"profundidad":"Superficial","ref":"33 km al E de M\u00e1ncora, Talara - Piura","reporte":46,"sentido":"1","ultimo":"0","event_ts_utc":"2026-01-21T10:35:09Z","event_ts_local":"2026-01-21T05:35:09-05:00"}},{"type":"Feature","id":1700,"geometry":{"type":"Point","coordinates":[-75.15,-15.18]},"properties":{"code":"2026-45","departamento":"ICA","fecha":1768885200000,"fechaevento":1768894625000,"hora":"02:37:05","int_":"III Marcona","lat":-15.18,"lon":-75.15,"mag":"4.0","magnitud":4.0,"negprof":-56,"objectid":1700,"prof":56,"profundidad":"Superficial","ref":"20 km al N de Marcona, Nasca - Ica","reporte":45,"sentido":"1","ultimo":"0","event_ts_utc":"2026-01-20T07:37:05Z","event_ts_local":"2026-01-20T02:37:05-05:00"}},{"type":"Feature","id":1699,"geometry":{"type":"Point","coordinates":[-78.17,-7.7]},"properties":{"code":"2026-44","departamento":"CAJAMARCA","fecha":1768798800000,"fechaevento":1768855571000,"hora":"15:46:11","int_":"II Cajabamba","lat":-7.7,"lon":-78.17,"mag":"3.5","magnitud":3.5,"negprof":-15,"objectid":1699,"prof":15,"profundidad":"Superficial","ref":"16 km al SO de Cajabamba, Cajabamba - Cajamarca","reporte":44,"sentido":"1","ultimo":"0","event_ts_utc":"2026-01-19T20:46:11Z","event_ts_local":"2026-01-19T15:46:11-05:00"}},{"type":"Feature","id":1698,"geometry":{"type":"Point","coordinates":[-74.62,-15.64]},"properties":{"code":"2026-43","departamento":"AREQUIPA","fecha":1768712400000,"fechaevento":1768787038000,"hora":"20:43:58","int_":"III Yauca","lat":-15.64,"lon":-74.62,"mag":"4.0","magnitud":4.0,"negprof":-57,"objectid":1698,"prof":57,"profundidad":"Superficial","ref":"10 km al O de Yauca, Caravel\u00ed - Arequipa","reporte":43,"sentido":"1","ultimo":"0","event_ts_utc":"2026-01-19T01:43:58Z","event_ts_local":"2026-01-18T20:43:58-05:00"}},{"type":"Feature","id":1697,"geometry":{"type":"Point","coordinates":[-77.03,-12.42]},"properties":{"code":"2026-42","departamento":"OCEANO","fecha":1768626000000,"fechaevento":1768637552000,"hora":"03:12:32","int_":"III Chilca","lat":-12.42,"lon":-77.03,"mag":"3.8","magnitud":3.8,"negprof":-47,"objectid":1697,"prof":47,"profundidad":"Superficial","ref":"34 km al O de Chilca, Ca\u00f1ete - Lima","reporte":42,"sentido":"1","ultimo":"0","event_ts_utc":"2026-01-17T08:12:32Z","event_ts_local":"2026-01-17T03:12:32-05:00"}},{"type":"Feature","id":1696,"geometry":{"type":"Point","coordinates":[-78.06,-4.57]},"properties":{"code":"2026-41","departamento":"AMAZONAS","fecha":1768539600000,"fechaevento":1768598104000,"hora":"16:15:04","int_":"II-III Santa Mar\u00eda de Nieva","lat":-4.57,"lon":-78.06,"mag":"4.1","magnitud":4.1,"negprof":-44,"objectid":1696,"prof":44,"profundidad":"Superficial","ref":"21 km al O de Santa Mar\u00eda de Nieva, Condorcanqui - Amazonas","reporte":41,"sentido":"1","ultimo":"0","event_ts_utc":"2026-01-16T21:15:04Z","event_ts_local":"2026-01-16T16:15:04-05:00"}},{"type":"Feature","id":1695,"geometry":{"type":"Point","coordinates":[-70.46,-17.77]},"properties":{"code":"2026-40","departamento":"TACNA","fecha":1768539600000,"fechaevento":1768548879000,"hora":"02:34:39","int_":"III Alto de la Alianza","lat":-17.77,"lon":-70.46,"mag":"4.5","magnitud":4.5,"negprof":-110,"objectid":1695,"prof":110,"profundidad":"Intermedio","ref":"33 km al NO de Alto de la Alianza, Tacna - Tacna","reporte":40,"sentido":"1","ultimo":"0","event_ts_utc":"2026-01-16T07:34:39Z","event_ts_local":"2026-01-16T02:34:39-05:00"}},{"type":"Feature","id":1694,"geometry":{"type":"Point","coordinates":[-75.99,-13.69]},"properties":{"code":"2026-39","departamento":"ICA","fecha":1768453200000,"fechaevento":1768535207000,"hora":"22:46:47","int_":"III Pisco","lat":-13.69,"lon":-75.99,"mag":"4.3","magnitud":4.3,"negprof":-52,"objectid":1694,"prof":52,"profundidad":"Superficial","ref":"25 km al E de Pisco, Pisco - Ica","reporte":39,"sentido":"1","ultimo":"0","event_ts_utc":"2026-01-16T03:46:47Z","event_ts_local":"2026-01-15T22:46:47-05:00"}},{"type":"Feature","id":1693,"geometry":{"type":"Point","coordinates":[-73.02,-15.36]},"properties":{"code":"2026-38","departamento":"AREQUIPA","fecha":1768453200000,"fechaevento":1768501841000,"hora":"13:30:41","int_":"","lat":-15.36,"lon":-73.02,"mag":"4.3","magnitud":4.3,"negprof":-130,"objectid":1693,"prof":130,"profundidad":"Intermedio","ref":"22 km al SO de Cotahuasi, La Uni\u00f3n - Arequipa","reporte":38,"sentido":"0","ultimo":"0","event_ts_utc":"2026-01-15T18:30:41Z","event_ts_local":"2026-01-15T13:30:41-05:00"}},{"type":"Feature","id":1692,"geometry":{"type":"Point","coordinates":[-77.57,-8.8]},"properties":{"code":"2026-37","departamento":"\u00c1NCASH","fecha":1768366800000,"fechaevento":1768447324000,"hora":"22:22:04","int_":"","lat":-8.8,"lon":-77.57,"mag":"4.0","magnitud":4.0,"negprof":-122,"objectid":1692,"prof":122,"profundidad":"Intermedio","ref":"12 km al O de Pomabamba, Pomabamba - \u00c1ncash","reporte":37,"sentido":"0","ultimo":"0","event_ts_utc":"2026-01-15T03:22:04Z","event_ts_local":"2026-01-14T22:22:04-05:00"}},{"type":"Feature","id":1691,"geometry":{"type":"Point","coordinates":[-79.26,-9.07]},"properties":{"code":"2026-36","departamento":"OCEANO","fecha":1768366800000,"fechaevento":1768406261000,"hora":"10:57:41","int_":"II-III Chimbote","lat":-9.07,"lon":-79.26,"mag":"3.6","magnitud":3.6,"negprof":-40,"objectid":1691,"prof":40,"profundidad":"Superficial","ref":"74 km al O de Chimbote, Santa - \u00c1ncash","reporte":36,"sentido":"1","ultimo":"0","event_ts_utc":"2026-01-14T15:57:41Z","event_ts_local":"2026-01-14T10:57:41-05:00"}},{"type":"Feature","id":1690,"geometry":{"type":"Point","coordinates":[-79.03,-9.42]},"properties":{"code":"2026-35","departamento":"OCEANO","fecha":1768366800000,"fechaevento":1768370592000,"hora":"01:03:12","int_":"","lat":-9.42,"lon":-79.03,"mag":"4.0","magnitud":4.0,"negprof":-48,"objectid":1690,"prof":48,"profundidad":"Superficial","ref":"63 km al SO de Chimbote, Santa - \u00c1ncash","reporte":35,"sentido":"0","ultimo":"0","event_ts_utc":"2026-01-14T06:03:12Z","event_ts_local":"2026-01-14T01:03:12-05:00"}},{"type":"Feature","id":1689,"geometry":{"type":"Point","coordinates":[-69.77,-20.63]},"properties":{"code":"2026-34","departamento":"CHILE","fecha":1768280400000,"fechaevento":1768289310000,"hora":"02:28:30","int_":"III Tacna","lat":-20.63,"lon":-69.77,"mag":"4.8","magnitud":4.8,"negprof":-138,"objectid":1689,"prof":138,"profundidad":"Intermedio","ref":"295 km al S de Tacna, Tacna - Tacna","reporte":34,"sentido":"1","ultimo":"0","event_ts_utc":"2026-01-13T07:28:30Z","event_ts_local":"2026-01-13T02:28:30-05:00"}},{"type":"Feature","id":1688,"geometry":{"type":"Point","coordinates":[-71.92,-16.75]},"properties":{"code":"2026-33","departamento":"AREQUIPA","fecha":1768280400000,"fechaevento":1768283820000,"hora":"00:57:00","int_":"II Mollendo","lat":-16.75,"lon":-71.92,"mag":"3.6","magnitud":3.6,"negprof":-21,"objectid":1688,"prof":21,"profundidad":"Superficial","ref":"32 km al N de Mollendo, Islay - Arequipa","reporte":33,"sentido":"1","ultimo":"0","event_ts_utc":"2026-01-13T05:57:00Z","event_ts_local":"2026-01-13T00:57:00-05:00"}},{"type":"Feature","id":1687,"geometry":{"type":"Point","coordinates":[-80.83,-4.82]},"properties":{"code":"2026-32","departamento":"PIURA","fecha":1768194000000,"fechaevento":1768273321000,"hora":"22:02:01","int_":"II-III Sullana","lat":-4.82,"lon":-80.83,"mag":"4.2","magnitud":4.2,"negprof":-35,"objectid":1687,"prof":35,"profundidad":"Superficial","ref":"18 km al NO de Sullana, Sullana - Piura","reporte":32,"sentido":"1","ultimo":"0","event_ts_utc":"2026-01-13T03:02:01Z","event_ts_local":"2026-01-12T22:02:01-05:00"}},{"type":"Feature","id":1686,"geometry":{"type":"Point","coordinates":[-80.87,-4.87]},"properties":{"code":"2026-31","departamento":"PIURA","fecha":1768194000000,"fechaevento":1768272912000,"hora":"21:55:12","int_":"II-III Sullana","lat":-4.87,"lon":-80.87,"mag":"4.1","magnitud":4.1,"negprof":-32,"objectid":1686,"prof":32,"profundidad":"Superficial","ref":"20 km al O de Sullana, Sullana - Piura","reporte":31,"sentido":"1","ultimo":"0","event_ts_utc":"2026-01-13T02:55:12Z","event_ts_local":"2026-01-12T21:55:12-05:00"}},{"type":"Feature","id":1685,"geometry":{"type":"Point","coordinates":[-79.25,-9.09]},"properties":{"code":"2026-30","departamento":"OCEANO","fecha":1768194000000,"fechaevento":1768215003000,"hora":"05:50:03","int_":"II-III Chimbote","lat":-9.09,"lon":-79.25,"mag":"4.2","magnitud":4.2,"negprof":-41,"objectid":1685,"prof":41,"profundidad":"Superficial","ref":"73 km al O de Chimbote, Santa - \u00c1ncash","reporte":30,"sentido":"1","ultimo":"0","event_ts_utc":"2026-01-12T10:50:03Z","event_ts_local":"2026-01-12T05:50:03-05:00"}},{"type":"Feature","id":1684,"geometry":{"type":"Point","coordinates":[-76.12,-15.01]},"properties":{"code":"2026-29","departamento":"OCEANO","fecha":1768194000000,"fechaevento":1768211128000,"hora":"04:45:28","int_":"","lat":-15.01,"lon":-76.12,"mag":"4.1","magnitud":4.1,"negprof":-32,"objectid":1684,"prof":32,"profundidad":"Superficial","ref":"84 km al O de San Juan, Nasca - Ica","reporte":29,"sentido":"0","ultimo":"0","event_ts_utc":"2026-01-12T09:45:28Z","event_ts_local":"2026-01-12T04:45:28-05:00"}},{"type":"Feature","id":1683,"geometry":{"type":"Point","coordinates":[-71.9,-15.99]},"properties":{"code":"2026-28","departamento":"AREQUIPA","fecha":1768107600000,"fechaevento":1768168277000,"hora":"16:51:17","int_":"","lat":-15.99,"lon":-71.9,"mag":"4.0","magnitud":4.0,"negprof":-130,"objectid":1683,"prof":130,"profundidad":"Intermedio","ref":"37 km al SE de Huambo, Caylloma - Arequipa","reporte":28,"sentido":"0","ultimo":"0","event_ts_utc":"2026-01-11T21:51:17Z","event_ts_local":"2026-01-11T16:51:17-05:00"}},{"type":"Feature","id":1682,"geometry":{"type":"Point","coordinates":[-79.16,-8.97]},"properties":{"code":"2026-27","departamento":"OCEANO","fecha":1768107600000,"fechaevento":1768131904000,"hora":"06:45:04","int_":"II-III Chimbote","lat":-8.97,"lon":-79.16,"mag":"3.7","magnitud":3.7,"negprof":-51,"objectid":1682,"prof":51,"profundidad":"Superficial","ref":"64 km al O de Chimbote, Santa - \u00c1ncash","reporte":27,"sentido":"1","ultimo":"0","event_ts_utc":"2026-01-11T11:45:04Z","event_ts_local":"2026-01-11T06:45:04-05:00"}},{"type":"Feature","id":1681,"geometry":{"type":"Point","coordinates":[-79.6,-9.52]},"properties":{"code":"2026-26","departamento":"OCEANO","fecha":1768021200000,"fechaevento":1768087092000,"hora":"18:18:12","int_":"","lat":-9.52,"lon":-79.6,"mag":"4.2","magnitud":4.2,"negprof":-29,"objectid":1681,"prof":29,"profundidad":"Superficial","ref":"122 km al SO de Chimbote, Santa - \u00c1ncash","reporte":26,"sentido":"0","ultimo":"0","event_ts_utc":"2026-01-10T23:18:12Z","event_ts_local":"2026-01-10T18:18:12-05:00"}},{"type":"Feature","id":1680,"geometry":{"type":"Point","coordinates":[-71.86,-16.83]},"properties":{"code":"2026-25","departamento":"AREQUIPA","fecha":1768021200000,"fechaevento":1768074264000,"hora":"14:44:24","int_":"III Mollendo","lat":-16.83,"lon":-71.86,"mag":"4.0","magnitud":4.0,"negprof":-25,"objectid":1680,"prof":25,"profundidad":"Superficial","ref":"27 km al NE de Mollendo, Islay - Arequipa","reporte":25,"sentido":"1","ultimo":"0","event_ts_utc":"2026-01-10T19:44:24Z","event_ts_local":"2026-01-10T14:44:24-05:00"}},{"type":"Feature","id":1679,"geometry":{"type":"Point","coordinates":[-71.94,-16.57]},"properties":{"code":"2026-24","departamento":"AREQUIPA","fecha":1768021200000,"fechaevento":1768059893000,"hora":"10:44:53","int_":"II-III Vitor","lat":-16.57,"lon":-71.94,"mag":"3.5","magnitud":3.5,"negprof":-37,"objectid":1679,"prof":37,"profundidad":"Superficial","ref":"12 km al S de Vitor, Arequipa - Arequipa","reporte":24,"sentido":"1","ultimo":"0","event_ts_utc":"2026-01-10T15:44:53Z","event_ts_local":"2026-01-10T10:44:53-05:00"}},{"type":"Feature","id":1678,"geometry":{"type":"Point","coordinates":[-75.27,-14.76]},"properties":{"code":"2026-23","departamento":"ICA","fecha":1767934800000,"fechaevento":1767994614000,"hora":"16:36:54","int_":"III-IV Palpa","lat":-14.76,"lon":-75.27,"mag":"5.3","magnitud":5.3,"negprof":-48,"objectid":1678,"prof":48,"profundidad":"Superficial","ref":"27 km al S de Palpa, Palpa - Ica","reporte":23,"sentido":"1","ultimo":"0","event_ts_utc":"2026-01-09T21:36:54Z","event_ts_local":"2026-01-09T16:36:54-05:00"}},{"type":"Feature","id":1677,"geometry":{"type":"Point","coordinates":[-73.15,-16.33]},"properties":{"code":"2026-22","departamento":"AREQUIPA","fecha":1767934800000,"fechaevento":1767980952000,"hora":"12:49:12","int_":"II-III Oco\u00f1a","lat":-16.33,"lon":-73.15,"mag":"3.6","magnitud":3.6,"negprof":-50,"objectid":1677,"prof":50,"profundidad":"Superficial","ref":"12 km al NO de Oco\u00f1a, Caman\u00e1 - Arequipa","reporte":22,"sentido":"1","ultimo":"0","event_ts_utc":"2026-01-09T17:49:12Z","event_ts_local":"2026-01-09T12:49:12-05:00"}},{"type":"Feature","id":1676,"geometry":{"type":"Point","coordinates":[-74.64,-13.87]},"properties":{"code":"2026-21","departamento":"AYACUCHO","fecha":1767848400000,"fechaevento":1767918038000,"hora":"19:20:38","int_":"","lat":-13.87,"lon":-74.64,"mag":"4.0","magnitud":4.0,"negprof":-104,"objectid":1676,"prof":104,"profundidad":"Intermedio","ref":"33 km al O de Sancos, Huanca Sancos - Ayacucho","reporte":21,"sentido":"0","ultimo":"0","event_ts_utc":"2026-01-09T00:20:38Z","event_ts_local":"2026-01-08T19:20:38-05:00"}},{"type":"Feature","id":1675,"geometry":{"type":"Point","coordinates":[-71.58,-17.0]},"properties":{"code":"2026-20","departamento":"AREQUIPA","fecha":1767848400000,"fechaevento":1767908860000,"hora":"16:47:40","int_":"III Punta de Bomb\u00f3n","lat":-17.0,"lon":-71.58,"mag":"4.2","magnitud":4.2,"negprof":-74,"objectid":1675,"prof":74,"profundidad":"Intermedio","ref":"30 km al NE de Punta de Bomb\u00f3n, Islay - Arequipa","reporte":20,"sentido":"1","ultimo":"0","event_ts_utc":"2026-01-08T21:47:40Z","event_ts_local":"2026-01-08T16:47:40-05:00"}},{"type":"Feature","id":1674,"geometry":{"type":"Point","coordinates":[-76.21,-5.41]},"properties":{"code":"2026-19","departamento":"LORETO","fecha":1767848400000,"fechaevento":1767881582000,"hora":"09:13:02","int_":"","lat":-5.41,"lon":-76.21,"mag":"4.0","magnitud":4.0,"negprof":-127,"objectid":1674,"prof":127,"profundidad":"Intermedio","ref":"55 km al N de Yurimaguas, Alto Amazonas - Loreto","reporte":19,"sentido":"0","ultimo":"0","event_ts_utc":"2026-01-08T14:13:02Z","event_ts_local":"2026-01-08T09:13:02-05:00"}},{"type":"Feature","id":1673,"geometry":{"type":"Point","coordinates":[-77.66,-3.99]},"properties":{"code":"2026-18","departamento":"AMAZONAS","fecha":1767848400000,"fechaevento":1767849469000,"hora":"00:17:49","int_":"III-IV Santa Mar\u00eda de Nieva","lat":-3.99,"lon":-77.66,"mag":"5.6","magnitud":5.6,"negprof":-106,"objectid":1673,"prof":106,"profundidad":"Intermedio","ref":"71 km al N de Santa Mar\u00eda de Nieva, Condorcanqui - Amazonas","reporte":18,"sentido":"1","ultimo":"0","event_ts_utc":"2026-01-08T05:17:49Z","event_ts_local":"2026-01-08T00:17:49-05:00"}},{"type":"Feature","id":1672,"geometry":{"type":"Point","coordinates":[-76.83,-12.39]},"properties":{"code":"2026-17","departamento":"OCEANO","fecha":1767762000000,"fechaevento":1767848267000,"hora":"23:57:47","int_":"II-III Chilca","lat":-12.39,"lon":-76.83,"mag":"3.5","magnitud":3.5,"negprof":-57,"objectid":1672,"prof":57,"profundidad":"Superficial","ref":"17 km al NO de Chilca, Ca\u00f1ete - Lima","reporte":17,"sentido":"1","ultimo":"0","event_ts_utc":"2026-01-08T04:57:47Z","event_ts_local":"2026-01-07T23:57:47-05:00"}},{"type":"Feature","id":1671,"geometry":{"type":"Point","coordinates":[-76.11,-11.08]},"properties":{"code":"2026-16","departamento":"JUN\u00cdN","fecha":1767762000000,"fechaevento":1767785558000,"hora":"06:32:38","int_":"II Jun\u00edn","lat":-11.08,"lon":-76.11,"mag":"3.5","magnitud":3.5,"negprof":-25,"objectid":1671,"prof":25,"profundidad":"Superficial","ref":"16 km al NO de Jun\u00edn, Jun\u00edn - Jun\u00edn","reporte":16,"sentido":"1","ultimo":"0","event_ts_utc":"2026-01-07T11:32:38Z","event_ts_local":"2026-01-07T06:32:38-05:00"}},{"type":"Feature","id":1670,"geometry":{"type":"Point","coordinates":[-79.14,-8.19]},"properties":{"code":"2026-15","departamento":"OCEANO","fecha":1767675600000,"fechaevento":1767751272000,"hora":"21:01:12","int_":"II-III Trujillo","lat":-8.19,"lon":-79.14,"mag":"3.7","magnitud":3.7,"negprof":-71,"objectid":1670,"prof":71,"profundidad":"Intermedio","ref":"15 km al SO de Trujillo, Trujillo - La Libertad","reporte":15,"sentido":"1","ultimo":"0","event_ts_utc":"2026-01-07T02:01:12Z","event_ts_local":"2026-01-06T21:01:12-05:00"}},{"type":"Feature","id":1669,"geometry":{"type":"Point","coordinates":[-76.06,-15.32]},"properties":{"code":"2026-14","departamento":"OCEANO","fecha":1767589200000,"fechaevento":1767632839000,"hora":"12:07:19","int_":"II-III San Juan","lat":-15.32,"lon":-76.06,"mag":"4.6","magnitud":4.6,"negprof":-31,"objectid":1669,"prof":31,"profundidad":"Superficial","ref":"78 km al O de San Juan, Nasca - Ica","reporte":14,"sentido":"1","ultimo":"0","event_ts_utc":"2026-01-05T17:07:19Z","event_ts_local":"2026-01-05T12:07:19-05:00"}},{"type":"Feature","id":1668,"geometry":{"type":"Point","coordinates":[-76.84,-12.58]},"properties":{"code":"2026-13","departamento":"OCEANO","fecha":1767589200000,"fechaevento":1767620084000,"hora":"08:34:44","int_":"III Chilca","lat":-12.58,"lon":-76.84,"mag":"3.7","magnitud":3.7,"negprof":-51,"objectid":1668,"prof":51,"profundidad":"Superficial","ref":"13 km al SO de Chilca, Ca\u00f1ete - Lima","reporte":13,"sentido":"1","ultimo":"0","event_ts_utc":"2026-01-05T13:34:44Z","event_ts_local":"2026-01-05T08:34:44-05:00"}},{"type":"Feature","id":1667,"geometry":{"type":"Point","coordinates":[-71.78,-14.51]},"properties":{"code":"2026-12","departamento":"CUSCO","fecha":1767589200000,"fechaevento":1767608247000,"hora":"05:17:27","int_":"III Huayhuahuasi","lat":-14.51,"lon":-71.78,"mag":"3.6","magnitud":3.6,"negprof":-9,"objectid":1667,"prof":9,"profundidad":"Superficial","ref":"32 km al NO de Huayhuahuasi, Espinar - Cusco","reporte":12,"sentido":"1","ultimo":"0","event_ts_utc":"2026-01-05T10:17:27Z","event_ts_local":"2026-01-05T05:17:27-05:00"}},{"type":"Feature","id":1666,"geometry":{"type":"Point","coordinates":[-75.6,-5.77]},"properties":{"code":"2026-11","departamento":"LORETO","fecha":1767502800000,"fechaevento":1767565048000,"hora":"17:17:28","int_":"II-III Yurimaguas","lat":-5.77,"lon":-75.6,"mag":"3.7","magnitud":3.7,"negprof":-17,"objectid":1666,"prof":17,"profundidad":"Superficial","ref":"58 km al E de Yurimaguas, Alto Amazonas - Loreto","reporte":11,"sentido":"1","ultimo":"0","event_ts_utc":"2026-01-04T22:17:28Z","event_ts_local":"2026-01-04T17:17:28-05:00"}},{"type":"Feature","id":1665,"geometry":{"type":"Point","coordinates":[-74.55,-15.76]},"properties":{"code":"2026-10","departamento":"OCEANO","fecha":1767502800000,"fechaevento":1767536759000,"hora":"09:25:59","int_":"II-III Yauca","lat":-15.76,"lon":-74.55,"mag":"3.6","magnitud":3.6,"negprof":-50,"objectid":1665,"prof":50,"profundidad":"Superficial","ref":"11 km al S de Yauca, Caravel\u00ed - Arequipa","reporte":10,"sentido":"1","ultimo":"0","event_ts_utc":"2026-01-04T14:25:59Z","event_ts_local":"2026-01-04T09:25:59-05:00"}},{"type":"Feature","id":1664,"geometry":{"type":"Point","coordinates":[-76.34,-14.61]},"properties":{"code":"2026-9","departamento":"OCEANO","fecha":1767416400000,"fechaevento":1767471471000,"hora":"15:17:51","int_":"III Ica","lat":-14.61,"lon":-76.34,"mag":"4.5","magnitud":4.5,"negprof":-20,"objectid":1664,"prof":20,"profundidad":"Superficial","ref":"89 km al SO de Ica, Ica - Ica","reporte":9,"sentido":"1","ultimo":"0","event_ts_utc":"2026-01-03T20:17:51Z","event_ts_local":"2026-01-03T15:17:51-05:00"}},{"type":"Feature","id":1663,"geometry":{"type":"Point","coordinates":[-79.33,-9.08]},"properties":{"code":"2026-8","departamento":"OCEANO","fecha":1767416400000,"fechaevento":1767446250000,"hora":"08:17:30","int_":"III Chimbote","lat":-9.08,"lon":-79.33,"mag":"4.5","magnitud":4.5,"negprof":-37,"objectid":1663,"prof":37,"profundidad":"Superficial","ref":"82 km al O de Chimbote, Santa - \u00c1ncash","reporte":8,"sentido":"1","ultimo":"0","event_ts_utc":"2026-01-03T13:17:30Z","event_ts_local":"2026-01-03T08:17:30-05:00"}},{"type":"Feature","id":1662,"geometry":{"type":"Point","coordinates":[-79.2,-8.96]},"properties":{"code":"2026-7","departamento":"OCEANO","fecha":1767330000000,"fechaevento":1767398999000,"hora":"19:09:59","int_":"II-III Chimbote","lat":-8.96,"lon":-79.2,"mag":"3.8","magnitud":3.8,"negprof":-43,"objectid":1662,"prof":43,"profundidad":"Superficial","ref":"69 km al O de Chimbote, Santa - \u00c1ncash","reporte":7,"sentido":"1","ultimo":"0","event_ts_utc":"2026-01-03T00:09:59Z","event_ts_local":"2026-01-02T19:09:59-05:00"}},{"type":"Feature","id":1661,"geometry":{"type":"Point","coordinates":[-81.0,-7.23]},"properties":{"code":"2026-6","departamento":"OCEANO","fecha":1767330000000,"fechaevento":1767382349000,"hora":"14:32:29","int_":"","lat":-7.23,"lon":-81.0,"mag":"4.1","magnitud":4.1,"negprof":-15,"objectid":1661,"prof":15,"profundidad":"Superficial","ref":"125 km al O de Pimentel, Chiclayo - Lambayeque","reporte":6,"sentido":"0","ultimo":"0","event_ts_utc":"2026-01-02T19:32:29Z","event_ts_local":"2026-01-02T14:32:29-05:00"}},{"type":"Feature","id":1660,"geometry":{"type":"Point","coordinates":[-79.14,-9.02]},"properties":{"code":"2026-5","departamento":"OCEANO","fecha":1767330000000,"fechaevento":1767359760000,"hora":"08:16:00","int_":"II-III Chimbote","lat":-9.02,"lon":-79.14,"mag":"3.7","magnitud":3.7,"negprof":-43,"objectid":1660,"prof":43,"profundidad":"Superficial","ref":"61 km al O de Chimbote, Santa - \u00c1ncash","reporte":5,"sentido":"1","ultimo":"0","event_ts_utc":"2026-01-02T13:16:00Z","event_ts_local":"2026-01-02T08:16:00-05:00"}},{"type":"Feature","id":1659,"geometry":{"type":"Point","coordinates":[-75.24,-10.11]},"properties":{"code":"2026-4","departamento":"PASCO","fecha":1767243600000,"fechaevento":1767326919000,"hora":"23:08:39","int_":"II-III Pozuzo","lat":-10.11,"lon":-75.24,"mag":"3.6","magnitud":3.6,"negprof":-16,"objectid":1659,"prof":16,"profundidad":"Superficial","ref":"35 km al E de Pozuzo, Oxapampa - Pasco","reporte":4,"sentido":"1","ultimo":"0","event_ts_utc":"2026-01-02T04:08:39Z","event_ts_local":"2026-01-01T23:08:39-05:00"}},{"type":"Feature","id":1658,"geometry":{"type":"Point","coordinates":[-76.04,-15.29]},"properties":{"code":"2026-3","departamento":"OCEANO","fecha":1767243600000,"fechaevento":1767310252000,"hora":"18:30:52","int_":"II-III San Juan","lat":-15.29,"lon":-76.04,"mag":"4.5","magnitud":4.5,"negprof":-29,"objectid":1658,"prof":29,"profundidad":"Superficial","ref":"75 km al O de San Juan, Nasca - Ica","reporte":3,"sentido":"1","ultimo":"0","event_ts_utc":"2026-01-01T23:30:52Z","event_ts_local":"2026-01-01T18:30:52-05:00"}},{"type":"Feature","id":1657,"geometry":{"type":"Point","coordinates":[-76.98,-12.57]},"properties":{"code":"2026-2","departamento":"OCEANO","fecha":1767243600000,"fechaevento":1767284900000,"hora":"11:28:20","int_":"III Chilca","lat":-12.57,"lon":-76.98,"mag":"4.2","magnitud":4.2,"negprof":-68,"objectid":1657,"prof":68,"profundidad":"Intermedio","ref":"27 km al O de Chilca, Ca\u00f1ete - Lima","reporte":2,"sentido":"1","ultimo":"0","event_ts_utc":"2026-01-01T16:28:20Z","event_ts_local":"2026-01-01T11:28:20-05:00"}},{"type":"Feature","id":1656,"geometry":{"type":"Point","coordinates":[-76.0,-15.26]},"properties":{"code":"2026-1","departamento":"OCEANO","fecha":1767243600000,"fechaevento":1767262825000,"hora":"05:20:25","int_":"III San Juan","lat":-15.26,"lon":-76.0,"mag":"4.4","magnitud":4.4,"negprof":-32,"objectid":1656,"prof":32,"profundidad":"Superficial","ref":"70 km al O de San Juan, Nasca - Ica","reporte":1,"sentido":"1","ultimo":"0","event_ts_utc":"2026-01-01T10:20:25Z","event_ts_local":"2026-01-01T05:20:25-05:00"}},{"type":"Feature","id":6,"geometry":{"type":"Point","coordinates":[-83.03683165099994,-8.209756489999961]},"properties":{"code":null,"departamento":null,"fecha":null,"fechaevento":null,"hora":null,"int_":" ","lat":null,"lon":null,"mag":"","magnitud":8.0,"negprof":null,"objectid":6,"prof":null,"profundidad":null,"ref":null,"reporte":null,"sentido":"","ultimo":null,"event_ts_utc":null,"event_ts_local":null}},{"type":"Feature","id":3,"geometry":{"type":"Point","coordinates":[-84.17826955599998,-7.784514917999957]},"properties":{"code":"","departamento":null,"fecha":null,"fechaevento":null,"hora":"","int_":" ","lat":null,"lon":null,"mag":"","magnitud":7.0,"negprof":null,"objectid":3,"prof":null,"profundidad":null,"ref":null,"reporte":null,"sentido":"","ultimo":null,"event_ts_utc":null,"event_ts_local":null}}]}